{"type":"FeatureCollection","features":[{"type":"Feature","properties":{"value":"City 1","state":"Iowa","city":"Des Moines","geoType":"pnt"},"geometry":{"coordinates":[-93.6543080073123,41.67923591915792],"type":"Point"},"id":0},{"type":"Feature","properties":{"value":"City 2","state":"Nebraska","city":"Lincoln","geoType":"pnt"},"geometry":{"coordinates":[-96.715243263113,40.808178715266365],"type":"Point"},"id":1},{"type":"Feature","properties":{"value":"City 3","state":"Nebraska","city":"Kearney","geoType":"pnt"},"geometry":{"coordinates":[-99.11717807162636,40.69546100528706],"type":"Point"},"id":2},{"type":"Feature","properties":{"value":"Travel Route","state":"none","city":"none","geoType":"line"},"geometry":{"coordinates":[[-93.6330517324716,41.639533516398416],[-94.02629649666912,41.528235624664234],[-95.41859549964315,41.51231924715279],[-95.58864847765926,41.496400204708834],[-95.80121625582706,41.2571438247831],[-96.08817970165171,41.281109087637134],[-96.33263028208897,41.03304393682717],[-96.63021842485695,40.800133641311675],[-98.28819680915345,40.832308385453416],[-98.78771389171263,40.71963078378823],[-99.27659839196555,40.69546108026546]],"type":"LineString"},"id":3},{"type":"Feature","properties":{"value":"Study Area","state":"none","city":"none","geoType":"Polyg"},"geometry":{"coordinates":[[[-92.97409601731819,42.10646187040953],[-94.83404160615191,42.53082553086281],[-98.16065431633115,42.12222115529795],[-99.53165589578649,41.0370513127547],[-99.79736946130464,40.051763639216006],[-98.64956614118763,39.60283745822994],[-95.8756123335313,39.7337309596881],[-93.63305046864366,40.44923019807763],[-92.66382824407073,41.63342429777697],[-92.97409601731819,42.10646187040953]]],"type":"Polygon"},"id":4}]}